norad_id,name,regime,epoch,line1,line2,inclination,eccentricity,mean_motion,raan,arg_pericenter,mean_anomaly
40349,O3B FM11,MEO,23054.23450318,1 40349U 14083B   23054.23450318 -.00000024  00000-0  00000-0 0    17,2 40349   0.0539 358.5260 0003241 343.8325  17.6234  5.00115432149385,0.0539,0.0003241,5.00115432,358.526,343.8325,17.6234
40349,O3B FM11,MEO,23054.83417527,1 40349U 14083B   23054.83417527 -.00000025  00000-0  00000-0 0    19,2 40349   0.0539 358.4529 0003243 344.4137  17.1157  5.00115438149400,0.0539,0.0003243,5.00115438,358.4529,344.4137,17.1157
40349,O3B FM11,MEO,23055.03406597,1 40349U 14083B   23055.03406597 -.00000025  00000-0  00000+0 0  6562,2 40349   0.0539 358.4537 0003243 344.5431  16.9857  5.00115440149572,0.0539,0.0003243,5.0011544,358.4537,344.5431,16.9857
40349,O3B FM11,MEO,23055.43384755,1 40349U 14083B   23055.43384755 -.00000025  00000-0  00000-0 0    12,2 40349   0.0539 358.4986 0003244 344.9150  16.5693  5.00115433149445,0.0539,0.0003244,5.00115433,358.4986,344.915,16.5693
40349,O3B FM11,MEO,23055.83362893,1 40349U 14083B   23055.83362893 -.00000025  00000-0  00000-0 0    15,2 40349   0.0539 358.4045 0003245 345.2962  16.2825  5.00115436149455,0.0539,0.0003245,5.00115436,358.4045,345.2962,16.2825
40349,O3B FM11,MEO,23056.43330095,1 40349U 14083B   23056.43330095 -.00000026  00000-0  00000-0 0    12,2 40349   0.0539 358.4176 0003246 345.7784  15.7876  5.00115448149495,0.0539,0.0003246,5.00115448,358.4176,345.7784,15.7876
40349,O3B FM11,MEO,23057.43275450,1 40349U 14083B   23057.43275450 -.00000027  00000-0  00000-0 0    17,2 40349   0.0539 358.4017 0003248 346.4673  15.1152  5.00115446149541,0.0539,0.0003248,5.00115446,358.4017,346.4673,15.1152
40349,O3B FM11,MEO,23057.63264493,1 40349U 14083B   23057.63264493 -.00000027  00000-0  00000-0 0    14,2 40349   0.0539 358.4008 0003248 346.6399  14.9436  5.00115467149554,0.0539,0.0003248,5.00115467,358.4008,346.6399,14.9436
40349,O3B FM11,MEO,23058.03242628,1 40349U 14083B   23058.03242628 -.00000027  00000-0  00000-0 0    15,2 40349   0.0539 358.3983 0003249 347.0401  14.5462  5.00115474149570,0.0539,0.0003249,5.00115474,358.3983,347.0401,14.5462
40349,O3B FM11,MEO,23058.43220752,1 40349U 14083B   23058.43220752 -.00000027  00000-0  00000-0 0    13,2 40349   0.0539 358.3947 0003250 347.3885  14.2016  5.00115486149598,0.0539,0.000325,5.00115486,358.3947,347.3885,14.2016
40349,O3B FM11,MEO,23059.43166071,1 40349U 14083B   23059.43166071 -.00000028  00000-0  00000+0 0  6574,2 40349   0.0539 358.3920 0003252 348.2554  13.3379  5.00115508149793,0.0539,0.0003252,5.00115508,358.392,348.2554,13.3379
40349,O3B FM11,MEO,23060.43111416,1 40349U 14083B   23060.43111416 -.00000029  00000-0  00000-0 0    14,2 40349   0.0539 358.3996 0003252 349.1997  12.3867  5.00115510149690,0.0539,0.0003252,5.0011551,358.3996,349.1997,12.3867
40349,O3B FM11,MEO,23061.43056742,1 40349U 14083B   23061.43056742 -.00000029  00000-0  00000-0 0    15,2 40349   0.0538 358.4022 0003254 350.1046  11.4799  5.00115523149743,0.0538,0.0003254,5.00115523,358.4022,350.1046,11.4799
40349,O3B FM11,MEO,23062.43002098,1 40349U 14083B   23062.43002098 -.00000028  00000-0  00000-0 0    10,2 40349   0.0538 358.4412 0003258 351.1936  10.3526  5.00115521149798,0.0538,0.0003258,5.00115521,358.4412,351.1936,10.3526
40349,O3B FM11,MEO,23063.22958372,1 40349U 14083B   23063.22958372 -.00000027  00000-0  00000-0 0    12,2 40349   0.0538 358.4112 0003260 351.9776   9.5992  5.00115522149831,0.0538,0.000326,5.00115522,358.4112,351.9776,9.5992
40349,O3B FM11,MEO,23065.42838132,1 40349U 14083B   23065.42838132 -.00000023  00000-0  00000-0 0    13,2 40349   0.0537 358.4166 0003266 354.0368   7.5369  5.00115528149940,0.0537,0.0003266,5.00115528,358.4166,354.0368,7.5369
40349,O3B FM11,MEO,23066.42783473,1 40349U 14083B   23066.42783473 -.00000020  00000-0  00000-0 0    18,2 40349   0.0537 358.2962 0003266 355.0884   6.6068  5.00115535149984,0.0537,0.0003266,5.00115535,358.2962,355.0884,6.6068
40349,O3B FM11,MEO,23067.02750728,1 40349U 14083B   23067.02750728 -.00000019  00000-0  00000-0 0    10,2 40349   0.0537 358.2947 0003267 355.6542   6.0432  5.00115501150013,0.0537,0.0003267,5.00115501,358.2947,355.6542,6.0432
40349,O3B FM11,MEO,23068.42674277,1 40349U 14083B   23068.42674277 -.00000016  00000-0  00000-0 0    16,2 40349   0.0537 358.3453 0003270 356.9206   4.7280  5.00115457150095,0.0537,0.000327,5.00115457,358.3453,356.9206,4.728
40349,O3B FM11,MEO,23069.62608669,1 40349U 14083B   23069.62608669 -.00000014  00000-0  00000-0 0    19,2 40349   0.0536 358.3427 0003273 358.0561   3.5965  5.00115480150155,0.0536,0.0003273,5.0011548,358.3427,358.0561,3.5965
40349,O3B FM11,MEO,23070.22575879,1 40349U 14083B   23070.22575879 -.00000014  00000-0  00000-0 0    13,2 40349   0.0536 358.3875 0003274 358.5641   3.0444  5.00115474150180,0.0536,0.0003274,5.00115474,358.3875,358.5641,3.0444
40349,O3B FM11,MEO,23070.62554018,1 40349U 14083B   23070.62554018 -.00000014  00000-0  00000-0 0    19,2 40349   0.0536 358.3869 0003275 358.9407   2.6687  5.00115470150201,0.0536,0.0003275,5.0011547,358.3869,358.9407,2.6687
40349,O3B FM11,MEO,23071.22521241,1 40349U 14083B   23071.22521241 -.00000014  00000-0  00000-0 0    18,2 40349   0.0536 358.4047 0003275 359.4027   2.1893  5.00115447150235,0.0536,0.0003275,5.00115447,358.4047,359.4027,2.1893
40349,O3B FM11,MEO,23071.62499381,1 40349U 14083B   23071.62499381 -.00000014  00000-0  00000-0 0    11,2 40349   0.0536 358.4101 0003271 359.7539   1.8329  5.00115436150253,0.0536,0.0003271,5.00115436,358.4101,359.7539,1.8329
40349,O3B FM11,MEO,23072.42455631,1 40349U 14083B   23072.42455631 -.00000014  00000-0  00000-0 0    10,2 40349   0.0536 358.4343 0003272   0.4691   1.0940  5.00115438150298,0.0536,0.0003272,5.00115438,358.4343,0.4691,1.094
40349,O3B FM11,MEO,23072.42455643,1 40349U 14083B   23072.42455643 -.00000014  00000-0  00000-0 0    13,2 40349   0.0536 358.3764 0003273   0.4982   1.1228  5.00115429150287,0.0536,0.0003273,5.00115429,358.3764,0.4982,1.1228
40349,O3B FM11,MEO,23073.42400966,1 40349U 14083B   23073.42400966 -.00000016  00000-0  00000-0 0    14,2 40349   0.0536 358.4203 0003274   1.3921   0.1852  5.00115414150343,0.0536,0.0003274,5.00115414,358.4203,1.3921,0.1852
40349,O3B FM11,MEO,23073.62390013,1 40349U 14083B   23073.62390013 -.00000016  00000-0  00000-0 0    17,2 40349   0.0535 358.4917 0003276   1.5850 359.9210  5.00115425150355,0.0535,0.0003276,5.00115425,358.4917,1.585,359.921
40349,O3B FM11,MEO,23074.02368136,1 40349U 14083B   23074.02368136 -.00000017  00000-0  00000+0 0  6604,2 40349   0.0535 358.4606 0003275   1.8393 359.6977  5.00115419150523,0.0535,0.0003275,5.00115419,358.4606,1.8393,359.6977
40349,O3B FM11,MEO,23074.42346248,1 40349U 14083B   23074.42346248 -.00000017  00000-0  00000-0 0    18,2 40349   0.0535 358.4700 0003275   2.1853 359.3424  5.00115423150397,0.0535,0.0003275,5.00115423,358.47,2.1853,359.3424
40349,O3B FM11,MEO,23075.02313428,1 40349U 14083B   23075.02313428 -.00000019  00000-0  00000-0 0    11,2 40349   0.0535 358.5057 0003276   2.6991 358.7928  5.00115419150423,0.0535,0.0003276,5.00115419,358.5057,2.6991,358.7928
40349,O3B FM11,MEO,23076.42236859,1 40349U 14083B   23076.42236859 -.00000021  00000-0  00000-0 0    11,2 40349   0.0534 358.6301 0003280   3.9697 357.3978  5.00115409150493,0.0534,0.000328,5.00115409,358.6301,3.9697,357.3978
40349,O3B FM11,MEO,23076.82214984,1 40349U 14083B   23076.82214984 -.00000022  00000-0  00000-0 0    11,2 40349   0.0534 358.5604 0003280   4.3681 357.0690  5.00115407150504,0.0534,0.000328,5.00115407,358.5604,4.3681,357.069
40349,O3B FM11,MEO,23077.82160271,1 40349U 14083B   23077.82160271 -.00000024  00000-0  00000-0 0    13,2 40349   0.0534 358.6227 0003282   5.2179 356.1571  5.00115430150560,0.0534,0.0003282,5.0011543,358.6227,5.2179,356.1571
40349,O3B FM11,MEO,23078.02149337,1 40349U 14083B   23078.02149337 -.00000024  00000-0  00000-0 0    16,2 40349   0.0534 358.6345 0003282   5.3765 355.9869  5.00115428150578,0.0534,0.0003282,5.00115428,358.6345,5.3765,355.9869
40349,O3B FM11,MEO,23078.62116530,1 40349U 14083B   23078.62116530 -.00000024  00000-0  00000-0 0    11,2 40349   0.0533 358.6578 0003284   5.8819 355.4584  5.00115432150600,0.0533,0.0003284,5.00115432,358.6578,5.8819,355.4584
40349,O3B FM11,MEO,23079.42072841,1 40349U 14083B   23079.42072841 -.00000025  00000-0  00000-0 0    17,2 40349   0.0533 358.6859 0003285   6.6914 354.6213  5.00115406150643,0.0533,0.0003285,5.00115406,358.6859,6.6914,354.6213
40349,O3B FM11,MEO,23080.02040045,1 40349U 14083B   23080.02040045 -.00000025  00000-0  00000-0 0    16,2 40349   0.0533 358.6977 0003286   7.1865 354.1148  5.00115411150677,0.0533,0.0003286,5.00115411,358.6977,7.1865,354.1148
40349,O3B FM11,MEO,23081.41963490,1 40349U 14083B   23081.41963490 -.00000026  00000-0  00000-0 0    19,2 40349   0.0532 358.7300 0003287   8.2813 352.9888  5.00115453150744,0.0532,0.0003287,5.00115453,358.73,8.2813,352.9888
40349,O3B FM11,MEO,23083.01876047,1 40349U 14083B   23083.01876047 -.00000026  00000-0  00000+0 0  6620,2 40349   0.0532 358.7725 0003289   9.5634 351.6656  5.00115472150977,0.0532,0.0003289,5.00115472,358.7725,9.5634,351.6656
40349,O3B FM11,MEO,23083.21865123,1 40349U 14083B   23083.21865123 -.00000026  00000-0  00000-0 0    13,2 40349   0.0531 358.8122 0003291   9.7331 351.4564  5.00115472150838,0.0531,0.0003291,5.00115472,358.8122,9.7331,351.4564
40349,O3B FM11,MEO,23084.21810483,1 40349U 14083B   23084.21810483 -.00000027  00000-0  00000-0 0    14,2 40349   0.0531 358.7688 0003293  10.6657 350.5680  5.00115471150870,0.0531,0.0003293,5.00115471,358.7688,10.6657,350.568
40349,O3B FM11,MEO,23085.81723018,1 40349U 14083B   23085.81723018 -.00000029  00000-0  00000-0 0    10,2 40349   0.0531 358.8369 0003295  12.1249 349.0421  5.00115500150951,0.0531,0.0003295,5.001155,358.8369,12.1249,349.0421
